[{"OBJECT_NAME":"STARLINK-31540","OBJECT_ID":"2024-074J","EPOCH":"2026-03-19T22:26:24.111456","MEAN_MOTION":15.27573057,"ECCENTRICITY":0.00012386,"INCLINATION":43.0016,"RA_OF_ASC_NODE":285.4545,"ARG_OF_PERICENTER":272.335,"MEAN_ANOMALY":87.736,"EPHEMERIS_TYPE":0,"CLASSIFICATION_TYPE":"U","NORAD_CAT_ID":59542,"ELEMENT_SET_NO":999,"REV_AT_EPOCH":10758,"BSTAR":2.990796e-6,"MEAN_MOTION_DOT":-1.8e-6,"MEAN_MOTION_DDOT":0},{"OBJECT_NAME":"STARLINK-31574","OBJECT_ID":"2024-074K","EPOCH":"2026-03-19T15:12:37.596672","MEAN_MOTION":15.27588485,"ECCENTRICITY":0.00010491,"INCLINATION":43.0021,"RA_OF_ASC_NODE":287.4925,"ARG_OF_PERICENTER":263.2111,"MEAN_ANOMALY":96.8621,"EPHEMERIS_TYPE":0,"CLASSIFICATION_TYPE":"U","NORAD_CAT_ID":59543,"ELEMENT_SET_NO":999,"REV_AT_EPOCH":10753,"BSTAR":-1.5591475e-5,"MEAN_MOTION_DOT":-6.91e-6,"MEAN_MOTION_DDOT":0},{"OBJECT_NAME":"STARLINK-31556","OBJECT_ID":"2024-074L","EPOCH":"2026-03-19T21:32:57.097248","MEAN_MOTION":15.2757793,"ECCENTRICITY":0.00013685,"INCLINATION":43.0046,"RA_OF_ASC_NODE":286.0386,"ARG_OF_PERICENTER":255.4892,"MEAN_ANOMALY":104.5808,"EPHEMERIS_TYPE":0,"CLASSIFICATION_TYPE":"U","NORAD_CAT_ID":59544,"ELEMENT_SET_NO":999,"REV_AT_EPOCH":10757,"BSTAR":8.642496e-6,"MEAN_MOTION_DOT":-2.4e-7,"MEAN_MOTION_DDOT":0},{"OBJECT_NAME":"STARLINK-31582","OBJECT_ID":"2024-074M","EPOCH":"2026-03-19T21:49:35.952096","MEAN_MOTION":15.27581218,"ECCENTRICITY":0.00014967,"INCLINATION":43.0021,"RA_OF_ASC_NODE":286.125,"ARG_OF_PERICENTER":272.244,"MEAN_ANOMALY":87.824,"EPHEMERIS_TYPE":0,"CLASSIFICATION_TYPE":"U","NORAD_CAT_ID":59545,"ELEMENT_SET_NO":999,"REV_AT_EPOCH":10757,"BSTAR":4.3566918e-5,"MEAN_MOTION_DOT":9.37e-6,"MEAN_MOTION_DDOT":0},{"OBJECT_NAME":"STARLINK-31519","OBJECT_ID":"2024-074N","EPOCH":"2026-03-19T20:35:35.065536","MEAN_MOTION":15.27586514,"ECCENTRICITY":0.00012629,"INCLINATION":43.0025,"RA_OF_ASC_NODE":285.7394,"ARG_OF_PERICENTER":277.8209,"MEAN_ANOMALY":82.2499,"EPHEMERIS_TYPE":0,"CLASSIFICATION_TYPE":"U","NORAD_CAT_ID":59546,"ELEMENT_SET_NO":999,"REV_AT_EPOCH":10757,"BSTAR":2.9677265e-5,"MEAN_MOTION_DOT":5.55e-6,"MEAN_MOTION_DDOT":0},{"OBJECT_NAME":"STARLINK-31736","OBJECT_ID":"2024-074P","EPOCH":"2026-03-19T13:21:20.195136","MEAN_MOTION":15.27585203,"ECCENTRICITY":0.00013741,"INCLINATION":42.9988,"RA_OF_ASC_NODE":280.8413,"ARG_OF_PERICENTER":238.9974,"MEAN_ANOMALY":121.0743,"EPHEMERIS_TYPE":0,"CLASSIFICATION_TYPE":"U","NORAD_CAT_ID":59547,"ELEMENT_SET_NO":999,"REV_AT_EPOCH":10760,"BSTAR":3.0549232e-5,"MEAN_MOTION_DOT":5.79e-6,"MEAN_MOTION_DDOT":0},{"OBJECT_NAME":"STARLINK-31675","OBJECT_ID":"2024-074Q","EPOCH":"2026-03-19T14:41:10.055616","MEAN_MOTION":15.27569786,"ECCENTRICITY":0.00013111,"INCLINATION":42.9988,"RA_OF_ASC_NODE":287.3268,"ARG_OF_PERICENTER":268.1904,"MEAN_ANOMALY":91.8798,"EPHEMERIS_TYPE":0,"CLASSIFICATION_TYPE":"U","NORAD_CAT_ID":59548,"ELEMENT_SET_NO":999,"REV_AT_EPOCH":10753,"BSTAR":4.5693547e-5,"MEAN_MOTION_DOT":9.95e-6,"MEAN_MOTION_DDOT":0},{"OBJECT_NAME":"STARLINK-31722","OBJECT_ID":"2024-074R","EPOCH":"2026-03-19T14:13:26.053824","MEAN_MOTION":15.27572288,"ECCENTRICITY":0.00015632,"INCLINATION":43.0021,"RA_OF_ASC_NODE":287.1869,"ARG_OF_PERICENTER":271.9293,"MEAN_ANOMALY":88.1379,"EPHEMERIS_TYPE":0,"CLASSIFICATION_TYPE":"U","NORAD_CAT_ID":59549,"ELEMENT_SET_NO":999,"REV_AT_EPOCH":10753,"BSTAR":-5.2567305e-5,"MEAN_MOTION_DOT":-1.708e-5,"MEAN_MOTION_DDOT":0},{"OBJECT_NAME":"STARLINK-31741","OBJECT_ID":"2024-074S","EPOCH":"2026-03-19T22:15:17.332416","MEAN_MOTION":15.27577741,"ECCENTRICITY":0.00014059,"INCLINATION":43.0016,"RA_OF_ASC_NODE":285.3963,"ARG_OF_PERICENTER":284.1815,"MEAN_ANOMALY":75.8881,"EPHEMERIS_TYPE":0,"CLASSIFICATION_TYPE":"U","NORAD_CAT_ID":59550,"ELEMENT_SET_NO":999,"REV_AT_EPOCH":10758,"BSTAR":0.00018300471,"MEAN_MOTION_DOT":4.777e-5,"MEAN_MOTION_DDOT":0},{"OBJECT_NAME":"STARLINK-31699","OBJECT_ID":"2024-074T","EPOCH":"2026-03-19T14:44:52.095840","MEAN_MOTION":15.27597782,"ECCENTRICITY":0.00014182,"INCLINATION":42.9994,"RA_OF_ASC_NODE":287.3464,"ARG_OF_PERICENTER":295.5183,"MEAN_ANOMALY":64.5522,"EPHEMERIS_TYPE":0,"CLASSIFICATION_TYPE":"U","NORAD_CAT_ID":59551,"ELEMENT_SET_NO":999,"REV_AT_EPOCH":10753,"BSTAR":-0.00010829491,"MEAN_MOTION_DOT":-3.243e-5,"MEAN_MOTION_DDOT":0},{"OBJECT_NAME":"STARLINK-31750","OBJECT_ID":"2024-074U","EPOCH":"2026-03-19T22:52:18.744672","MEAN_MOTION":15.27580343,"ECCENTRICITY":0.00010963,"INCLINATION":43.0058,"RA_OF_ASC_NODE":285.5927,"ARG_OF_PERICENTER":323.4378,"MEAN_ANOMALY":36.6399,"EPHEMERIS_TYPE":0,"CLASSIFICATION_TYPE":"U","NORAD_CAT_ID":59552,"ELEMENT_SET_NO":999,"REV_AT_EPOCH":10758,"BSTAR":-2.7879507e-5,"MEAN_MOTION_DOT":-1.029e-5,"MEAN_MOTION_DDOT":0},{"OBJECT_NAME":"STARLINK-31723","OBJECT_ID":"2024-074V","EPOCH":"2026-03-19T21:12:36.386208","MEAN_MOTION":15.27582976,"ECCENTRICITY":8.83e-5,"INCLINATION":43.0023,"RA_OF_ASC_NODE":285.9295,"ARG_OF_PERICENTER":301.1283,"MEAN_ANOMALY":58.9482,"EPHEMERIS_TYPE":0,"CLASSIFICATION_TYPE":"U","NORAD_CAT_ID":59553,"ELEMENT_SET_NO":999,"REV_AT_EPOCH":10757,"BSTAR":-0.00018590459,"MEAN_MOTION_DOT":-5.374e-5,"MEAN_MOTION_DDOT":0},{"OBJECT_NAME":"STARLINK-31724","OBJECT_ID":"2024-074W","EPOCH":"2026-03-19T11:50:34.658016","MEAN_MOTION":15.27597475,"ECCENTRICITY":5.478e-5,"INCLINATION":42.9982,"RA_OF_ASC_NODE":252.1187,"ARG_OF_PERICENTER":289.2213,"MEAN_ANOMALY":70.858,"EPHEMERIS_TYPE":0,"CLASSIFICATION_TYPE":"U","NORAD_CAT_ID":59554,"ELEMENT_SET_NO":999,"REV_AT_EPOCH":10792,"BSTAR":-0.00014538086,"MEAN_MOTION_DOT":-4.262e-5,"MEAN_MOTION_DDOT":0},{"OBJECT_NAME":"STARLINK-31730","OBJECT_ID":"2024-074X","EPOCH":"2026-03-19T14:04:22.451808","MEAN_MOTION":15.27580228,"ECCENTRICITY":0.00013014,"INCLINATION":43.0023,"RA_OF_ASC_NODE":288.0001,"ARG_OF_PERICENTER":272.5981,"MEAN_ANOMALY":87.4722,"EPHEMERIS_TYPE":0,"CLASSIFICATION_TYPE":"U","NORAD_CAT_ID":59555,"ELEMENT_SET_NO":999,"REV_AT_EPOCH":10752,"BSTAR":8.111839e-6,"MEAN_MOTION_DOT":-3.9e-7,"MEAN_MOTION_DDOT":0},{"OBJECT_NAME":"STARLINK-31718","OBJECT_ID":"2024-074Y","EPOCH":"2026-03-19T21:38:30.212448","MEAN_MOTION":15.2757615,"ECCENTRICITY":0.00014178,"INCLINATION":43.0024,"RA_OF_ASC_NODE":286.0643,"ARG_OF_PERICENTER":257.0578,"MEAN_ANOMALY":103.0116,"EPHEMERIS_TYPE":0,"CLASSIFICATION_TYPE":"U","NORAD_CAT_ID":59556,"ELEMENT_SET_NO":999,"REV_AT_EPOCH":10757,"BSTAR":7.4783682e-5,"MEAN_MOTION_DOT":1.796e-5,"MEAN_MOTION_DDOT":0},{"OBJECT_NAME":"STARLINK-31747","OBJECT_ID":"2024-076A","EPOCH":"2026-03-19T16:25:45.806880","MEAN_MOTION":15.27582129,"ECCENTRICITY":0.0001207,"INCLINATION":43.0028,"RA_OF_ASC_NODE":301.9737,"ARG_OF_PERICENTER":258.9849,"MEAN_ANOMALY":101.0867,"EPHEMERIS_TYPE":0,"CLASSIFICATION_TYPE":"U","NORAD_CAT_ID":59564,"ELEMENT_SET_NO":999,"REV_AT_EPOCH":10814,"BSTAR":3.301948e-6,"MEAN_MOTION_DOT":-1.71e-6,"MEAN_MOTION_DDOT":0}]
