STARLINK-31540          
1 59542U 24074J   26078.93500129 -.00000180  00000+0  29908-5 0  9996
2 59542  43.0016 285.4545 0001238 272.3350  87.7360 15.27573057107584
STARLINK-31574          
1 59543U 24074K   26078.63376848 -.00000691  00000+0 -15591-4 0  9993
2 59543  43.0021 287.4925 0001049 263.2111  96.8621 15.27588485107536
STARLINK-31556          
1 59544U 24074L   26078.89788307 -.00000024  00000+0  86425-5 0  9993
2 59544  43.0046 286.0386 0001368 255.4892 104.5808 15.27577930107574
STARLINK-31582          
1 59545U 24074M   26078.90944389  .00000937  00000+0  43567-4 0  9991
2 59545  43.0021 286.1250 0001496 272.2440  87.8240 15.27581218107574
STARLINK-31519          
1 59546U 24074N   26078.85804474  .00000555  00000+0  29677-4 0  9998
2 59546  43.0025 285.7394 0001262 277.8209  82.2499 15.27586514107577
STARLINK-31736          
1 59547U 24074P   26078.55648374  .00000579  00000+0  30549-4 0  9997
2 59547  42.9988 280.8413 0001374 238.9974 121.0743 15.27585203107605
STARLINK-31675          
1 59548U 24074Q   26078.61192194  .00000995  00000+0  45694-4 0  9998
2 59548  42.9988 287.3268 0001311 268.1904  91.8798 15.27569786107539
STARLINK-31722          
1 59549U 24074R   26078.59266266 -.00001708  00000+0 -52567-4 0  9990
2 59549  43.0021 287.1869 0001563 271.9293  88.1379 15.27572288107532
STARLINK-31741          
1 59550U 24074S   26078.92728394  .00004777  00000+0  18300-3 0  9997
2 59550  43.0016 285.3963 0001405 284.1815  75.8881 15.27577741107589
STARLINK-31699          
1 59551U 24074T   26078.61449185 -.00003243  00000+0 -10829-3 0  9999
2 59551  42.9994 287.3464 0001418 295.5183  64.5522 15.27597782107538
STARLINK-31750          
1 59552U 24074U   26078.95299473 -.00001029  00000+0 -27880-4 0  9996
2 59552  43.0058 285.5927 0001096 323.4378  36.6399 15.27580343107587
STARLINK-31723          
1 59553U 24074V   26078.88375447 -.00005374  00000+0 -18590-3 0  9999
2 59553  43.0023 285.9295 0000883 301.1283  58.9482 15.27582976107576
STARLINK-31724          
1 59554U 24074W   26078.49345669 -.00004262  00000+0 -14538-3 0  9993
2 59554  42.9982 252.1187 0000547 289.2213  70.8580 15.27597475107922
STARLINK-31730          
1 59555U 24074X   26078.58637097 -.00000039  00000+0  81118-5 0  9990
2 59555  43.0023 288.0001 0001301 272.5981  87.4722 15.27580228107526
STARLINK-31718          
1 59556U 24074Y   26078.90173857  .00001796  00000+0  74784-4 0  9996
2 59556  43.0024 286.0643 0001417 257.0578 103.0116 15.27576150107572
STARLINK-31747          
1 59564U 24076A   26078.68455795 -.00000171  00000+0  33019-5 0  9990
2 59564  43.0028 301.9737 0001207 258.9849 101.0867 15.27582129108142
